[{"OBJECT_NAME":"STARLINK-5163","OBJECT_ID":"2022-136D","EPOCH":"2026-03-09T21:33:28.391328","MEAN_MOTION":15.08836257,"ECCENTRICITY":0.00014116,"INCLINATION":53.2199,"RA_OF_ASC_NODE":343.3117,"ARG_OF_PERICENTER":81.2422,"MEAN_ANOMALY":278.873,"EPHEMERIS_TYPE":0,"CLASSIFICATION_TYPE":"U","NORAD_CAT_ID":54054,"ELEMENT_SET_NO":999,"REV_AT_EPOCH":18687,"BSTAR":-8.256175e-6,"MEAN_MOTION_DOT":-4.19e-6,"MEAN_MOTION_DDOT":0},{"OBJECT_NAME":"CZ-6A DEB","OBJECT_ID":"2022-151YC","EPOCH":"2026-03-09T04:14:53.282976","MEAN_MOTION":14.99280007,"ECCENTRICITY":0.00518471,"INCLINATION":98.6024,"RA_OF_ASC_NODE":155.4435,"ARG_OF_PERICENTER":132.3409,"MEAN_ANOMALY":228.2221,"EPHEMERIS_TYPE":0,"CLASSIFICATION_TYPE":"U","NORAD_CAT_ID":55530,"ELEMENT_SET_NO":999,"REV_AT_EPOCH":17201,"BSTAR":0.0041206483,"MEAN_MOTION_DOT":0.00051995,"MEAN_MOTION_DDOT":0}]
